{
  "type": "FeatureCollection",
  "features": [
    {
      "type": "Feature",
      "properties": {
        "norad_id": 30090,
        "name": "FENGYUN 1C DEB",
        "group": "fengyun-1c-debris",
        "lat": 27.006408114398585,
        "lon": 170.60983425828078,
        "alt_km": 763.1896127590371,
        "timestamp": "2025-12-27T05:29:39.476709+00:00",
        "meta_object_name": "FENGYUN 1C DEB",
        "meta_object_id": "1999-025QT",
        "meta_epoch": "2025-12-26T23:20:52.728000",
        "meta_mean_motion": 14.29057098,
        "meta_eccentricity": 0.00581146,
        "meta_inclination": 99.4092,
        "meta_ra_of_asc_node": 175.1817,
        "meta_arg_of_pericenter": 71.3144,
        "meta_mean_anomaly": 79.8612,
        "meta_ephemeris_type": 0,
        "meta_classification_type": "U",
        "meta_norad_cat_id": 30090,
        "meta_element_set_no": 999,
        "meta_rev_at_epoch": 98473,
        "meta_bstar": 0.00042872058,
        "meta_mean_motion_dot": 1.055e-05,
        "meta_mean_motion_ddot": 0,
        "tle_line1": "1 30090U 99025QT  25360.97283250  .00001055  00000+0  42872-3 0  9995",
        "tle_line2": "2 30090  99.4092 175.1817 0058114  71.3144  79.8612 14.29057098984735"
      },
      "geometry": {
        "type": "Point",
        "coordinates": [
          170.60983425828078,
          27.006408114398585
        ]
      }
    },
    {
      "type": "Feature",
      "properties": {
        "norad_id": 30092,
        "name": "FENGYUN 1C DEB",
        "group": "fengyun-1c-debris",
        "lat": 26.269028015058574,
        "lon": 5.51926152089758,
        "alt_km": 725.1939793181691,
        "timestamp": "2025-12-27T05:29:39.476719+00:00",
        "meta_object_name": "FENGYUN 1C DEB",
        "meta_object_id": "1999-025QV",
        "meta_epoch": "2025-12-26T10:34:04.594944",
        "meta_mean_motion": 14.39188218,
        "meta_eccentricity": 0.0082837,
        "meta_inclination": 98.923,
        "meta_ra_of_asc_node": 180.2517,
        "meta_arg_of_pericenter": 209.7177,
        "meta_mean_anomaly": 180.867,
        "meta_ephemeris_type": 0,
        "meta_classification_type": "U",
        "meta_norad_cat_id": 30092,
        "meta_element_set_no": 999,
        "meta_rev_at_epoch": 98946,
        "meta_bstar": 0.00061551,
        "meta_mean_motion_dot": 1.936e-05,
        "meta_mean_motion_ddot": 0,
        "tle_line1": "1 30092U 99025QV  25360.44033096  .00001936  00000+0  61551-3 0  9993",
        "tle_line2": "2 30092  98.9230 180.2517 0082837 209.7177 180.8670 14.39188218989463"
      },
      "geometry": {
        "type": "Point",
        "coordinates": [
          5.51926152089758,
          26.269028015058574
        ]
      }
    },
    {
      "type": "Feature",
      "properties": {
        "norad_id": 30093,
        "name": "FENGYUN 1C DEB",
        "group": "fengyun-1c-debris",
        "lat": -63.459114261939355,
        "lon": 38.19213454511554,
        "alt_km": 720.9629765356813,
        "timestamp": "2025-12-27T05:29:39.476729+00:00",
        "meta_object_name": "FENGYUN 1C DEB",
        "meta_object_id": "1999-025QW",
        "meta_epoch": "2025-12-26T15:18:16.103232",
        "meta_mean_motion": 14.43773499,
        "meta_eccentricity": 0.0069328,
        "meta_inclination": 98.867,
        "meta_ra_of_asc_node": 235.7891,
        "meta_arg_of_pericenter": 296.1349,
        "meta_mean_anomaly": 118.0202,
        "meta_ephemeris_type": 0,
        "meta_classification_type": "U",
        "meta_norad_cat_id": 30093,
        "meta_element_set_no": 999,
        "meta_rev_at_epoch": 99004,
        "meta_bstar": 0.00094358,
        "meta_mean_motion_dot": 3.256e-05,
        "meta_mean_motion_ddot": 0,
        "tle_line1": "1 30093U 99025QW  25360.63768638  .00003256  00000+0  94358-3 0  9990",
        "tle_line2": "2 30093  98.8670 235.7891 0069328 296.1349 118.0202 14.43773499990049"
      },
      "geometry": {
        "type": "Point",
        "coordinates": [
          38.19213454511554,
          -63.459114261939355
        ]
      }
    },
    {
      "type": "Feature",
      "properties": {
        "norad_id": 30095,
        "name": "FENGYUN 1C DEB",
        "group": "fengyun-1c-debris",
        "lat": -28.612112218421824,
        "lon": 99.47021910199187,
        "alt_km": 601.3805558513168,
        "timestamp": "2025-12-27T05:29:39.476740+00:00",
        "meta_object_name": "FENGYUN 1C DEB",
        "meta_object_id": "1999-025QY",
        "meta_epoch": "2025-12-26T17:12:00.416736",
        "meta_mean_motion": 14.82528963,
        "meta_eccentricity": 0.0163344,
        "meta_inclination": 99.2203,
        "meta_ra_of_asc_node": 283.9637,
        "meta_arg_of_pericenter": 288.4151,
        "meta_mean_anomaly": 69.936,
        "meta_ephemeris_type": 0,
        "meta_classification_type": "U",
        "meta_norad_cat_id": 30095,
        "meta_element_set_no": 999,
        "meta_rev_at_epoch": 99542,
        "meta_bstar": 0.0020897404,
        "meta_mean_motion_dot": 0.00021194,
        "meta_mean_motion_ddot": 0,
        "tle_line1": "1 30095U 99025QY  25360.71667149  .00021194  00000+0  20897-2 0  9993",
        "tle_line2": "2 30095  99.2203 283.9637 0163344 288.4151  69.9360 14.82528963995422"
      },
      "geometry": {
        "type": "Point",
        "coordinates": [
          99.47021910199187,
          -28.612112218421824
        ]
      }
    },
    {
      "type": "Feature",
      "properties": {
        "norad_id": 30096,
        "name": "FENGYUN 1C DEB",
        "group": "fengyun-1c-debris",
        "lat": 71.70912365438085,
        "lon": -69.575507930374,
        "alt_km": 773.0947758890306,
        "timestamp": "2025-12-27T05:29:39.476750+00:00",
        "meta_object_name": "FENGYUN 1C DEB",
        "meta_object_id": "1999-025QZ",
        "meta_epoch": "2025-12-26T17:15:20.517408",
        "meta_mean_motion": 14.31716267,
        "meta_eccentricity": 0.00797525,
        "meta_inclination": 99.1465,
        "meta_ra_of_asc_node": 80.7168,
        "meta_arg_of_pericenter": 191.8326,
        "meta_mean_anomaly": 168.0984,
        "meta_ephemeris_type": 0,
        "meta_classification_type": "U",
        "meta_norad_cat_id": 30096,
        "meta_element_set_no": 999,
        "meta_rev_at_epoch": 98746,
        "meta_bstar": 0.00033707741,
        "meta_mean_motion_dot": 8.83e-06,
        "meta_mean_motion_ddot": 0,
        "tle_line1": "1 30096U 99025QZ  25360.71898747  .00000883  00000+0  33708-3 0  9992",
        "tle_line2": "2 30096  99.1465  80.7168 0079752 191.8326 168.0984 14.31716267987462"
      },
      "geometry": {
        "type": "Point",
        "coordinates": [
          -69.575507930374,
          71.70912365438085
        ]
      }
    },
    {
      "type": "Feature",
      "properties": {
        "norad_id": 30099,
        "name": "FENGYUN 1C DEB",
        "group": "fengyun-1c-debris",
        "lat": 46.84274603680338,
        "lon": 63.94762907387054,
        "alt_km": 841.0926832114264,
        "timestamp": "2025-12-27T05:29:39.476760+00:00",
        "meta_object_name": "FENGYUN 1C DEB",
        "meta_object_id": "1999-025RC",
        "meta_epoch": "2025-12-26T23:20:57.967296",
        "meta_mean_motion": 14.25958607,
        "meta_eccentricity": 0.00617609,
        "meta_inclination": 98.5389,
        "meta_ra_of_asc_node": 72.9184,
        "meta_arg_of_pericenter": 202.7976,
        "meta_mean_anomaly": 331.5155,
        "meta_ephemeris_type": 0,
        "meta_classification_type": "U",
        "meta_norad_cat_id": 30099,
        "meta_element_set_no": 999,
        "meta_rev_at_epoch": 98392,
        "meta_bstar": 0.00035147395,
        "meta_mean_motion_dot": 8.12e-06,
        "meta_mean_motion_ddot": 0,
        "tle_line1": "1 30099U 99025RC  25360.97289314  .00000812  00000+0  35147-3 0  9998",
        "tle_line2": "2 30099  98.5389  72.9184 0061760 202.7976 331.5155 14.25958607983920"
      },
      "geometry": {
        "type": "Point",
        "coordinates": [
          63.94762907387054,
          46.84274603680338
        ]
      }
    },
    {
      "type": "Feature",
      "properties": {
        "norad_id": 30102,
        "name": "FENGYUN 1C DEB",
        "group": "fengyun-1c-debris",
        "lat": 33.255571593188506,
        "lon": 2.7447998000983787,
        "alt_km": 790.0365226041631,
        "timestamp": "2025-12-27T05:29:39.476770+00:00",
        "meta_object_name": "FENGYUN 1C DEB",
        "meta_object_id": "1999-025RF",
        "meta_epoch": "2025-12-26T22:51:58.521024",
        "meta_mean_motion": 14.22151563,
        "meta_eccentricity": 0.01409046,
        "meta_inclination": 98.3791,
        "meta_ra_of_asc_node": 8.0287,
        "meta_arg_of_pericenter": 318.6073,
        "meta_mean_anomaly": 100.4794,
        "meta_ephemeris_type": 0,
        "meta_classification_type": "U",
        "meta_norad_cat_id": 30102,
        "meta_element_set_no": 999,
        "meta_rev_at_epoch": 98160,
        "meta_bstar": 0.00033776241,
        "meta_mean_motion_dot": 7.86e-06,
        "meta_mean_motion_ddot": 0,
        "tle_line1": "1 30102U 99025RF  25360.95276066  .00000786  00000+0  33776-3 0  9997",
        "tle_line2": "2 30102  98.3791   8.0287 0140904 318.6073 100.4794 14.22151563981605"
      },
      "geometry": {
        "type": "Point",
        "coordinates": [
          2.7447998000983787,
          33.255571593188506
        ]
      }
    }
  ]
}